{"type": "FeatureCollection", "features": [ {"type": "Feature", "properties": {"norad_id": 31303, "name": "FENGYUN 1C DEB", "group": "fengyun-1c-debris", "lat": -4.274944713189789, "lon": -163.95680433448692, "alt_km": 856.3581879684516, "timestamp": "2025-12-26T22:28:06.066256+00:00", "meta": {"OBJECT_NAME": "FENGYUN 1C DEB", "OBJECT_ID": "1999-025BPM", "EPOCH": "2025-12-24T11:44:12.668064", "MEAN_MOTION": 14.11029713, "ECCENTRICITY": 0.00120246, "INCLINATION": 98.7039, "RA_OF_ASC_NODE": 14.3281, "ARG_OF_PERICENTER": 120.7767, "MEAN_ANOMALY": 239.459, "EPHEMERIS_TYPE": 0, "CLASSIFICATION_TYPE": "U", "NORAD_CAT_ID": 31303, "ELEMENT_SET_NO": 999, "REV_AT_EPOCH": 96484, "BSTAR": 0.00012179217, "MEAN_MOTION_DOT": 1.77e-06, "MEAN_MOTION_DDOT": 0}, "tle": {"line1": "1 31303U 99025BPM 25358.48903551  .00000177  00000+0  12179-3 0  9990", "line2": "2 31303  98.7039  14.3281 0012024 120.7767 239.4590 14.11029713964848"}}, "geometry": {"type": "Point", "coordinates": [-163.95680433448692, -4.274944713189789]}}, {"type": "Feature", "properties": {"norad_id": 31311, "name": "FENGYUN 1C DEB", "group": "fengyun-1c-debris", "lat": 57.01820455799, "lon": -83.59067141246591, "alt_km": 783.9640831683255, "timestamp": "2025-12-26T22:28:06.066274+00:00", "meta": {"OBJECT_NAME": "FENGYUN 1C DEB", "OBJECT_ID": "1999-025BPP", "EPOCH": "2025-12-26T11:55:06.174336", "MEAN_MOTION": 14.298598, "ECCENTRICITY": 0.00174518, "INCLINATION": 98.8513, "RA_OF_ASC_NODE": 82.0692, "ARG_OF_PERICENTER": 45.5488, "MEAN_ANOMALY": 334.6312, "EPHEMERIS_TYPE": 0, "CLASSIFICATION_TYPE": "U", "NORAD_CAT_ID": 31311, "ELEMENT_SET_NO": 999, "REV_AT_EPOCH": 96418, "BSTAR": 0.0016776117, "MEAN_MOTION_DOT": 4.279e-05, "MEAN_MOTION_DDOT": 0}, "tle": {"line1": "1 31311U 99025BPP 25360.49659924  .00004279  00000+0  16776-2 0  9998", "line2": "2 31311  98.8513  82.0692 0017451  45.5488 334.6312 14.29859800964180"}}, "geometry": {"type": "Point", "coordinates": [-83.59067141246591, 57.01820455799]}}, {"type": "Feature", "properties": {"norad_id": 31312, "name": "FENGYUN 1C DEB", "group": "fengyun-1c-debris", "lat": -70.40877894342766, "lon": 140.1855987964874, "alt_km": 873.8456479748211, "timestamp": "2025-12-26T22:28:06.066285+00:00", "meta": {"OBJECT_NAME": "FENGYUN 1C DEB", "OBJECT_ID": "1999-025BPQ", "EPOCH": "2025-12-15T05:56:52.525824", "MEAN_MOTION": 14.00925702, "ECCENTRICITY": 0.00580012, "INCLINATION": 98.8604, "RA_OF_ASC_NODE": 334.8421, "ARG_OF_PERICENTER": 229.1743, "MEAN_ANOMALY": 146.4845, "EPHEMERIS_TYPE": 0, "CLASSIFICATION_TYPE": "U", "NORAD_CAT_ID": 31312, "ELEMENT_SET_NO": 999, "REV_AT_EPOCH": 95181, "BSTAR": 0.00060391584, "MEAN_MOTION_DOT": 8.73e-06, "MEAN_MOTION_DDOT": 0}, "tle": {"line1": "1 31312U 99025BPQ 25349.24783016  .00000873  00000+0  60392-3 0  9999", "line2": "2 31312  98.8604 334.8421 0058001 229.1743 146.4845 14.00925702951810"}}, "geometry": {"type": "Point", "coordinates": [140.1855987964874, -70.40877894342766]}}, {"type": "Feature", "properties": {"norad_id": 31313, "name": "FENGYUN 1C DEB", "group": "fengyun-1c-debris", "lat": -52.156281076064296, "lon": -83.07005672220849, "alt_km": 856.1698732382147, "timestamp": "2025-12-26T22:28:06.066296+00:00", "meta": {"OBJECT_NAME": "FENGYUN 1C DEB", "OBJECT_ID": "1999-025BPR", "EPOCH": "2025-12-24T23:26:43.034208", "MEAN_MOTION": 14.22289458, "ECCENTRICITY": 0.00452183, "INCLINATION": 99.0155, "RA_OF_ASC_NODE": 263.1355, "ARG_OF_PERICENTER": 146.0282, "MEAN_ANOMALY": 214.3805, "EPHEMERIS_TYPE": 0, "CLASSIFICATION_TYPE": "U", "NORAD_CAT_ID": 31313, "ELEMENT_SET_NO": 999, "REV_AT_EPOCH": 97236, "BSTAR": 0.00028931861, "MEAN_MOTION_DOT": 6.03e-06, "MEAN_MOTION_DDOT": 0}, "tle": {"line1": "1 31313U 99025BPR 25358.97688697  .00000603  00000+0  28932-3 0  9994", "line2": "2 31313  99.0155 263.1355 0045218 146.0282 214.3805 14.22289458972365"}}, "geometry": {"type": "Point", "coordinates": [-83.07005672220849, -52.156281076064296]}}, {"type": "Feature", "properties": {"norad_id": 31314, "name": "FENGYUN 1C DEB", "group": "fengyun-1c-debris", "lat": -9.532443061982425, "lon": 173.05942976410208, "alt_km": 915.5123624440421, "timestamp": "2025-12-26T22:28:06.066306+00:00", "meta": {"OBJECT_NAME": "FENGYUN 1C DEB", "OBJECT_ID": "1999-025BPS", "EPOCH": "2025-12-23T18:21:29.542464", "MEAN_MOTION": 14.04935458, "ECCENTRICITY": 0.00782515, "INCLINATION": 98.8224, "RA_OF_ASC_NODE": 351.4704, "ARG_OF_PERICENTER": 326.4651, "MEAN_ANOMALY": 33.1576, "EPHEMERIS_TYPE": 0, "CLASSIFICATION_TYPE": "U", "NORAD_CAT_ID": 31314, "ELEMENT_SET_NO": 999, "REV_AT_EPOCH": 60969, "BSTAR": 0.00036988335, "MEAN_MOTION_DOT": 5.68e-06, "MEAN_MOTION_DDOT": 0}, "tle": {"line1": "1 31314U 99025BPS 25357.76492526  .00000568  00000+0  36988-3 0  9995", "line2": "2 31314  98.8224 351.4704 0078251 326.4651  33.1576 14.04935458609699"}}, "geometry": {"type": "Point", "coordinates": [173.05942976410208, -9.532443061982425]}}, {"type": "Feature", "properties": {"norad_id": 31319, "name": "FENGYUN 1C DEB", "group": "fengyun-1c-debris", "lat": 6.855010437211771, "lon": -102.3511130181594, "alt_km": 886.6512889372143, "timestamp": "2025-12-26T22:28:06.066316+00:00", "meta": {"OBJECT_NAME": "FENGYUN 1C DEB", "OBJECT_ID": "1999-025BPX", "EPOCH": "2025-12-25T12:23:06.552384", "MEAN_MOTION": 13.75833917, "ECCENTRICITY": 0.017059, "INCLINATION": 98.831, "RA_OF_ASC_NODE": 257.4028, "ARG_OF_PERICENTER": 53.0248, "MEAN_ANOMALY": 125.1909, "EPHEMERIS_TYPE": 0, "CLASSIFICATION_TYPE": "U", "NORAD_CAT_ID": 31319, "ELEMENT_SET_NO": 999, "REV_AT_EPOCH": 93863, "BSTAR": 0.00021521, "MEAN_MOTION_DOT": 1.93e-06, "MEAN_MOTION_DDOT": 0}, "tle": {"line1": "1 31319U 99025BPX 25359.51604806  .00000193  00000+0  21521-3 0  9992", "line2": "2 31319  98.8310 257.4028 0170590  53.0248 125.1909 13.75833917938633"}}, "geometry": {"type": "Point", "coordinates": [-102.3511130181594, 6.855010437211771]}}, {"type": "Feature", "properties": {"norad_id": 31321, "name": "FENGYUN 1C DEB", "group": "fengyun-1c-debris", "lat": 76.21118894234813, "lon": 40.69732580383467, "alt_km": 827.5187638758534, "timestamp": "2025-12-26T22:28:06.066326+00:00", "meta": {"OBJECT_NAME": "FENGYUN 1C DEB", "OBJECT_ID": "1999-025BPZ", "EPOCH": "2025-12-21T11:18:43.092576", "MEAN_MOTION": 14.13827699, "ECCENTRICITY": 0.00303049, "INCLINATION": 98.7333, "RA_OF_ASC_NODE": 74.1401, "ARG_OF_PERICENTER": 153.2037, "MEAN_ANOMALY": 207.0709, "EPHEMERIS_TYPE": 0, "CLASSIFICATION_TYPE": "U", "NORAD_CAT_ID": 31321, "ELEMENT_SET_NO": 999, "REV_AT_EPOCH": 57507, "BSTAR": 0.00012257196, "MEAN_MOTION_DOT": 1.9e-06, "MEAN_MOTION_DDOT": 0}, "tle": {"line1": "1 31321U 99025BPZ 25355.47133209  .00000190  00000+0  12257-3 0  9993", "line2": "2 31321  98.7333  74.1401 0030304 153.2037 207.0709 14.13827699575072"}}, "geometry": {"type": "Point", "coordinates": [40.69732580383467, 76.21118894234813]}}, {"type": "Feature", "properties": {"norad_id": 31322, "name": "FENGYUN 1C DEB", "group": "fengyun-1c-debris", "lat": -10.01041624410494, "lon": -118.27971191497107, "alt_km": 1129.8045432998315, "timestamp": "2025-12-26T22:28:06.066336+00:00", "meta": {"OBJECT_NAME": "FENGYUN 1C DEB", "OBJECT_ID": "1999-025BQA", "EPOCH": "2025-12-25T10:38:41.423136", "MEAN_MOTION": 13.73002665, "ECCENTRICITY": 0.0237967, "INCLINATION": 98.5719, "RA_OF_ASC_NODE": 61.9077, "ARG_OF_PERICENTER": 336.1945, "MEAN_ANOMALY": 41.6385, "EPHEMERIS_TYPE": 0, "CLASSIFICATION_TYPE": "U", "NORAD_CAT_ID": 31322, "ELEMENT_SET_NO": 999, "REV_AT_EPOCH": 62450, "BSTAR": 0.00021153, "MEAN_MOTION_DOT": 2e-06, "MEAN_MOTION_DDOT": 0}, "tle": {"line1": "1 31322U 99025BQA 25359.44353499  .00000200  00000+0  21153-3 0  9997", "line2": "2 31322  98.5719  61.9077 0237967 336.1945  41.6385 13.73002665624504"}}, "geometry": {"type": "Point", "coordinates": [-118.27971191497107, -10.01041624410494]}}, {"type": "Feature", "properties": {"norad_id": 31323, "name": "FENGYUN 1C DEB", "group": "fengyun-1c-debris", "lat": 18.000432253725858, "lon": 37.41010650401527, "alt_km": 779.1097572457775, "timestamp": "2025-12-26T22:28:06.066346+00:00", "meta": {"OBJECT_NAME": "FENGYUN 1C DEB", "OBJECT_ID": "1999-025BQB", "EPOCH": "2025-12-20T21:43:51.769056", "MEAN_MOTION": 14.27642156, "ECCENTRICITY": 0.0030892, "INCLINATION": 99.4195, "RA_OF_ASC_NODE": 34.0071, "ARG_OF_PERICENTER": 56.5612, "MEAN_ANOMALY": 303.8513, "EPHEMERIS_TYPE": 0, "CLASSIFICATION_TYPE": "U", "NORAD_CAT_ID": 31323, "ELEMENT_SET_NO": 999, "REV_AT_EPOCH": 64097, "BSTAR": 0.0010025, "MEAN_MOTION_DOT": 2.433e-05, "MEAN_MOTION_DDOT": 0}, "tle": {"line1": "1 31323U 99025BQB 25354.90546029  .00002433  00000+0  10025-2 0  9992", "line2": "2 31323  99.4195  34.0071 0030892  56.5612 303.8513 14.27642156640970"}}, "geometry": {"type": "Point", "coordinates": [37.41010650401527, 18.000432253725858]}}, {"type": "Feature", "properties": {"norad_id": 31324, "name": "FENGYUN 1C DEB", "group": "fengyun-1c-debris", "lat": -6.542942559571197, "lon": 101.6637206392792, "alt_km": 839.1185712582483, "timestamp": "2025-12-26T22:28:06.066357+00:00", "meta": {"OBJECT_NAME": "FENGYUN 1C DEB", "OBJECT_ID": "1999-025BQC", "EPOCH": "2025-12-21T14:16:42.684672", "MEAN_MOTION": 14.14700279, "ECCENTRICITY": 0.0048997, "INCLINATION": 99.1242, "RA_OF_ASC_NODE": 277.2633, "ARG_OF_PERICENTER": 278.9209, "MEAN_ANOMALY": 80.6419, "EPHEMERIS_TYPE": 0, "CLASSIFICATION_TYPE": "U", "NORAD_CAT_ID": 31324, "ELEMENT_SET_NO": 999, "REV_AT_EPOCH": 96611, "BSTAR": 0.00014071, "MEAN_MOTION_DOT": 2.27e-06, "MEAN_MOTION_DDOT": 0}, "tle": {"line1": "1 31324U 99025BQC 25355.59493848  .00000227  00000+0  14071-3 0  9994", "line2": "2 31324  99.1242 277.2633 0048997 278.9209  80.6419 14.14700279966112"}}, "geometry": {"type": "Point", "coordinates": [101.6637206392792, -6.542942559571197]}}]}